{"type": "FeatureCollection", "features": [ {"type": "Feature", "properties": {"norad_id": 35961, "name": "COSMOS 2251 DEB", "group": "cosmos-2251-debris", "lat": 67.2344741146, "lon": -100.46898709324071, "alt_km": 835.5022326947646, "timestamp": "2025-12-05T22:40:48.947127+00:00", "meta": {"OBJECT_NAME": "COSMOS 2251 DEB", "OBJECT_ID": "1993-036AVB", "EPOCH": "2025-11-29T09:08:47.173056", "MEAN_MOTION": 14.05319505, "ECCENTRICITY": 0.01924432, "INCLINATION": 73.9254, "RA_OF_ASC_NODE": 227.671, "ARG_OF_PERICENTER": 163.9834, "MEAN_ANOMALY": 196.7506, "EPHEMERIS_TYPE": 0, "CLASSIFICATION_TYPE": "U", "NORAD_CAT_ID": 35961, "ELEMENT_SET_NO": 999, "REV_AT_EPOCH": 62494, "BSTAR": 0.00062484461, "MEAN_MOTION_DOT": 1.171e-05, "MEAN_MOTION_DDOT": 0}, "tle": {"line1": "1 35961U 93036AVB 25333.38110154  .00001171  00000+0  62484-3 0  9990", "line2": "2 35961  73.9254 227.6710 0192443 163.9834 196.7506 14.05319505624940"}}, "geometry": {"type": "Point", "coordinates": [-100.46898709324071, 67.2344741146]}}, {"type": "Feature", "properties": {"norad_id": 35979, "name": "COSMOS 2251 DEB", "group": "cosmos-2251-debris", "lat": 67.44124685368588, "lon": -64.67690807283203, "alt_km": 612.3207406626598, "timestamp": "2025-12-05T22:40:48.947138+00:00", "meta": {"OBJECT_NAME": "COSMOS 2251 DEB", "OBJECT_ID": "1993-036AVV", "EPOCH": "2025-12-04T12:57:50.431392", "MEAN_MOTION": 14.74469287, "ECCENTRICITY": 0.0058708, "INCLINATION": 74.011, "RA_OF_ASC_NODE": 254.4216, "ARG_OF_PERICENTER": 28.4966, "MEAN_ANOMALY": 150.8593, "EPHEMERIS_TYPE": 0, "CLASSIFICATION_TYPE": "U", "NORAD_CAT_ID": 35979, "ELEMENT_SET_NO": 999, "REV_AT_EPOCH": 88512, "BSTAR": 0.0024348, "MEAN_MOTION_DOT": 0.00016643, "MEAN_MOTION_DDOT": 0}, "tle": {"line1": "1 35979U 93036AVV 25338.54016703  .00016643  00000+0  24348-2 0  9993", "line2": "2 35979  74.0110 254.4216 0058708  28.4966 150.8593 14.74469287885122"}}, "geometry": {"type": "Point", "coordinates": [-64.67690807283203, 67.44124685368588]}}, {"type": "Feature", "properties": {"norad_id": 35980, "name": "COSMOS 2251 DEB", "group": "cosmos-2251-debris", "lat": -31.365812375306106, "lon": 125.59814754110126, "alt_km": 680.5400116576129, "timestamp": "2025-12-05T22:40:48.947148+00:00", "meta": {"OBJECT_NAME": "COSMOS 2251 DEB", "OBJECT_ID": "1993-036AVW", "EPOCH": "2025-12-02T19:08:08.015136", "MEAN_MOTION": 14.59062146, "ECCENTRICITY": 0.00537712, "INCLINATION": 73.91, "RA_OF_ASC_NODE": 141.7735, "ARG_OF_PERICENTER": 277.5645, "MEAN_ANOMALY": 81.9413, "EPHEMERIS_TYPE": 0, "CLASSIFICATION_TYPE": "U", "NORAD_CAT_ID": 35980, "ELEMENT_SET_NO": 999, "REV_AT_EPOCH": 61341, "BSTAR": 0.002036555, "MEAN_MOTION_DOT": 9.752e-05, "MEAN_MOTION_DDOT": 0}, "tle": {"line1": "1 35980U 93036AVW 25336.79731499  .00009752  00000+0  20366-2 0  9995", "line2": "2 35980  73.9100 141.7735 0053771 277.5645  81.9413 14.59062146613413"}}, "geometry": {"type": "Point", "coordinates": [125.59814754110126, -31.365812375306106]}}, {"type": "Feature", "properties": {"norad_id": 35982, "name": "COSMOS 2251 DEB", "group": "cosmos-2251-debris", "lat": 13.157163410024545, "lon": 176.10746936465023, "alt_km": 691.0776965401337, "timestamp": "2025-12-05T22:40:48.947158+00:00", "meta": {"OBJECT_NAME": "COSMOS 2251 DEB", "OBJECT_ID": "1993-036AVY", "EPOCH": "2025-12-03T19:02:35.342304", "MEAN_MOTION": 14.6267509, "ECCENTRICITY": 0.0064053, "INCLINATION": 74.0591, "RA_OF_ASC_NODE": 4.0543, "ARG_OF_PERICENTER": 73.1235, "MEAN_ANOMALY": 287.6943, "EPHEMERIS_TYPE": 0, "CLASSIFICATION_TYPE": "U", "NORAD_CAT_ID": 35982, "ELEMENT_SET_NO": 999, "REV_AT_EPOCH": 86035, "BSTAR": 0.00091326, "MEAN_MOTION_DOT": 4.759e-05, "MEAN_MOTION_DDOT": 0}, "tle": {"line1": "1 35982U 93036AVY 25337.79346461  .00004759  00000+0  91326-3 0  9996", "line2": "2 35982  74.0591   4.0543 0064053  73.1235 287.6943 14.62675090860351"}}, "geometry": {"type": "Point", "coordinates": [176.10746936465023, 13.157163410024545]}}, {"type": "Feature", "properties": {"norad_id": 35987, "name": "COSMOS 2251 DEB", "group": "cosmos-2251-debris", "lat": -72.12404665364129, "lon": -83.53759707598559, "alt_km": 787.7310127382052, "timestamp": "2025-12-05T22:40:48.947167+00:00", "meta": {"OBJECT_NAME": "COSMOS 2251 DEB", "OBJECT_ID": "1993-036AWD", "EPOCH": "2025-12-01T10:54:45.006048", "MEAN_MOTION": 14.43015331, "ECCENTRICITY": 0.00459843, "INCLINATION": 73.9994, "RA_OF_ASC_NODE": 347.6475, "ARG_OF_PERICENTER": 116.8368, "MEAN_ANOMALY": 243.7501, "EPHEMERIS_TYPE": 0, "CLASSIFICATION_TYPE": "U", "NORAD_CAT_ID": 35987, "ELEMENT_SET_NO": 999, "REV_AT_EPOCH": 60902, "BSTAR": 0.00096989757, "MEAN_MOTION_DOT": 3.265e-05, "MEAN_MOTION_DDOT": 0}, "tle": {"line1": "1 35987U 93036AWD 25335.45468757  .00003265  00000+0  96990-3 0  9998", "line2": "2 35987  73.9994 347.6475 0045984 116.8368 243.7501 14.43015331609028"}}, "geometry": {"type": "Point", "coordinates": [-83.53759707598559, -72.12404665364129]}}, {"type": "Feature", "properties": {"norad_id": 35989, "name": "COSMOS 2251 DEB", "group": "cosmos-2251-debris", "lat": 64.68825174958157, "lon": 79.09106513866506, "alt_km": 761.3968177205415, "timestamp": "2025-12-05T22:40:48.947177+00:00", "meta": {"OBJECT_NAME": "COSMOS 2251 DEB", "OBJECT_ID": "1993-036AWF", "EPOCH": "2025-11-27T07:00:06.233184", "MEAN_MOTION": 14.37066498, "ECCENTRICITY": 0.00214096, "INCLINATION": 74.0374, "RA_OF_ASC_NODE": 312.2392, "ARG_OF_PERICENTER": 38.1471, "MEAN_ANOMALY": 322.1192, "EPHEMERIS_TYPE": 0, "CLASSIFICATION_TYPE": "U", "NORAD_CAT_ID": 35989, "ELEMENT_SET_NO": 999, "REV_AT_EPOCH": 86957, "BSTAR": 0.00024367588, "MEAN_MOTION_DOT": 6.99e-06, "MEAN_MOTION_DDOT": 0}, "tle": {"line1": "1 35989U 93036AWF 25331.29173881  .00000699  00000+0  24368-3 0  9997", "line2": "2 35989  74.0374 312.2392 0021409  38.1471 322.1192 14.37066498869576"}}, "geometry": {"type": "Point", "coordinates": [79.09106513866506, 64.68825174958157]}}, {"type": "Feature", "properties": {"norad_id": 35993, "name": "COSMOS 2251 DEB", "group": "cosmos-2251-debris", "lat": 18.806919214866006, "lon": -8.505050912653353, "alt_km": 695.4527035406245, "timestamp": "2025-12-05T22:40:48.947187+00:00", "meta": {"OBJECT_NAME": "COSMOS 2251 DEB", "OBJECT_ID": "1993-036AWK", "EPOCH": "2025-12-04T07:15:45.477216", "MEAN_MOTION": 14.6520036, "ECCENTRICITY": 0.0029389, "INCLINATION": 74.0149, "RA_OF_ASC_NODE": 349.0555, "ARG_OF_PERICENTER": 181.1599, "MEAN_ANOMALY": 178.9507, "EPHEMERIS_TYPE": 0, "CLASSIFICATION_TYPE": "U", "NORAD_CAT_ID": 35993, "ELEMENT_SET_NO": 999, "REV_AT_EPOCH": 60319, "BSTAR": 0.0015487, "MEAN_MOTION_DOT": 8.369e-05, "MEAN_MOTION_DDOT": 0}, "tle": {"line1": "1 35993U 93036AWK 25338.30260969  .00008369  00000+0  15487-2 0  9998", "line2": "2 35993  74.0149 349.0555 0029389 181.1599 178.9507 14.65200360603195"}}, "geometry": {"type": "Point", "coordinates": [-8.505050912653353, 18.806919214866006]}}, {"type": "Feature", "properties": {"norad_id": 35996, "name": "COSMOS 2251 DEB", "group": "cosmos-2251-debris", "lat": 60.50933351642633, "lon": -93.0141386866821, "alt_km": 538.0623859727966, "timestamp": "2025-12-05T22:40:48.947198+00:00", "meta": {"OBJECT_NAME": "COSMOS 2251 DEB", "OBJECT_ID": "1993-036AWN", "EPOCH": "2025-12-02T16:11:16.473408", "MEAN_MOTION": 15.08726823, "ECCENTRICITY": 0.00894127, "INCLINATION": 74.0129, "RA_OF_ASC_NODE": 124.191, "ARG_OF_PERICENTER": 217.4013, "MEAN_ANOMALY": 142.0936, "EPHEMERIS_TYPE": 0, "CLASSIFICATION_TYPE": "U", "NORAD_CAT_ID": 35996, "ELEMENT_SET_NO": 999, "REV_AT_EPOCH": 72174, "BSTAR": 0.0010208525, "MEAN_MOTION_DOT": 0.00017591, "MEAN_MOTION_DDOT": 0}, "tle": {"line1": "1 35996U 93036AWN 25336.67449622  .00017591  00000+0  10209-2 0  9998", "line2": "2 35996  74.0129 124.1910 0089412 217.4013 142.0936 15.08726823721745"}}, "geometry": {"type": "Point", "coordinates": [-93.0141386866821, 60.50933351642633]}}, {"type": "Feature", "properties": {"norad_id": 35997, "name": "COSMOS 2251 DEB", "group": "cosmos-2251-debris", "lat": 2.3283842692860315, "lon": 19.40824710741586, "alt_km": 725.3956608027383, "timestamp": "2025-12-05T22:40:48.947207+00:00", "meta": {"OBJECT_NAME": "COSMOS 2251 DEB", "OBJECT_ID": "1993-036AWP", "EPOCH": "2025-12-02T07:50:00.553056", "MEAN_MOTION": 14.51236016, "ECCENTRICITY": 0.00159085, "INCLINATION": 74.0439, "RA_OF_ASC_NODE": 206.8774, "ARG_OF_PERICENTER": 283.0639, "MEAN_ANOMALY": 76.8746, "EPHEMERIS_TYPE": 0, "CLASSIFICATION_TYPE": "U", "NORAD_CAT_ID": 35997, "ELEMENT_SET_NO": 999, "REV_AT_EPOCH": 70733, "BSTAR": 0.00076938672, "MEAN_MOTION_DOT": 3.037e-05, "MEAN_MOTION_DDOT": 0}, "tle": {"line1": "1 35997U 93036AWP 25336.32639529  .00003037  00000+0  76939-3 0  9991", "line2": "2 35997  74.0439 206.8774 0015908 283.0639  76.8746 14.51236016707337"}}, "geometry": {"type": "Point", "coordinates": [19.40824710741586, 2.3283842692860315]}}, {"type": "Feature", "properties": {"norad_id": 36005, "name": "COSMOS 2251 DEB", "group": "cosmos-2251-debris", "lat": -51.08087236739206, "lon": 85.94182135519515, "alt_km": 719.1115637626672, "timestamp": "2025-12-05T22:40:48.947218+00:00", "meta": {"OBJECT_NAME": "COSMOS 2251 DEB", "OBJECT_ID": "1993-036AWX", "EPOCH": "2025-12-03T02:54:52.272576", "MEAN_MOTION": 14.47331723, "ECCENTRICITY": 0.00621511, "INCLINATION": 74.026, "RA_OF_ASC_NODE": 112.0007, "ARG_OF_PERICENTER": 251.2803, "MEAN_ANOMALY": 108.1604, "EPHEMERIS_TYPE": 0, "CLASSIFICATION_TYPE": "U", "NORAD_CAT_ID": 36005, "ELEMENT_SET_NO": 999, "REV_AT_EPOCH": 87445, "BSTAR": 0.00029551015, "MEAN_MOTION_DOT": 1.08e-05, "MEAN_MOTION_DDOT": 0}, "tle": {"line1": "1 36005U 93036AWX 25337.12143834  .00001080  00000+0  29551-3 0  9994", "line2": "2 36005  74.0260 112.0007 0062151 251.2803 108.1604 14.47331723874455"}}, "geometry": {"type": "Point", "coordinates": [85.94182135519515, -51.08087236739206]}}]}